#aV2007  6 24  0  0   .00000000      96 DD+AD WGS84 FIT  NGA
## 1433       .00000000   900.00000000 54275  .0000000000000
+   30     1  2  3  4  5  6  7  8  9 10 11 12 13 14 16 17 18
+         19 20 21 22 23 24 25 26 27 28 29 30 31  0  0  0  0
+          0  0  0  0  0  0  0  0  0  0  0  0  0  0  0  0  0
+          0  0  0  0  0  0  0  0  0  0  0  0  0  0  0  0  0
+          0  0  0  0  0  0  0  0  0  0  0  0  0  0  0  0  0
++         0  0  0  0  0  0  0  0  0  0  0  0  0  0  0  0  0
++         0  0  0  0  0  0  0  0  0  0  0  0  0  0  0  0  0
++         0  0  0  0  0  0  0  0  0  0  0  0  0  0  0  0  0
++         0  0  0  0  0  0  0  0  0  0  0  0  0  0  0  0  0
++         0  0  0  0  0  0  0  0  0  0  0  0  0  0  0  0  0
%c cc cc ccc ccc cccc cccc cccc cccc ccccc ccccc ccccc ccccc
%c cc cc ccc ccc cccc cccc cccc cccc ccccc ccccc ccccc ccccc
%f  0.0000000  0.000000000  0.00000000000  0.000000000000000
%f  0.0000000  0.000000000  0.00000000000  0.000000000000000
%i    0    0    0    0      0      0      0      0         0
%i    0    0    0    0      0      0      0      0         0
/*      NGA, ST. LOUIS,MO.                                  
/*   EPHEMERIS COMPUTED FROM  3 DAYS OF DATA                
/* CCCCCCCCCCCCCCCCCCCCCCCCCCCCCCCCCCCCCCCCCCCCCCCCCCCCCCCCC
/* CCCCCCCCCCCCCCCCCCCCCCCCCCCCCCCCCCCCCCCCCCCCCCCCCCCCCCCCC
*  2007  6 24 22 30   .00000000                                                 
P  1  15158.031745 -21391.788000  -3793.205496    136.055789                    
V  1   -850.854431   5360.270728 -31962.752130       .021897                    
P  2 -15105.385494  13185.234045  17064.259178    116.685061                    
V  2 -22316.605841   -933.265737 -19096.487154       .028369                    
P  3   9500.738635 -24603.572486   -153.034476     77.131411                    
V  3   3922.738532   1584.529626  31167.975589       .055231                    
P  4 -24376.082543   7001.807850   8408.993668      8.825125                    
V  4 -10786.442937  -2355.940501 -28723.583048      -.010876                    
P  5  15480.078244  21650.116062  -1517.366610     96.742528                    
V  5  -3627.472454    750.711864 -31112.427213       .504483                    
P  6  12076.983242  11090.448502  21082.937203    222.143904                    
V  6 -11756.287858  23695.331673  -5823.138319       .086029                    
P  7  14144.281796   7423.398731  21567.093373    238.861536                    
V  7 -10773.886819  24406.063563  -1415.570640      -.192674                    
P  8 -26789.532948   -374.943501    742.898100   -112.285563                    
V  8   1058.892680  -1874.568373  31836.771392      -.015332                    
P  9   6261.543214  14618.546295 -21904.551511     75.917776                    
V  9 -26216.364596   2668.291602  -5664.011657       .016888                    
P 10  -4203.799849  17944.325567  18887.073531    103.795440                    
V 10 -13993.534150 -19943.648693  16045.224341       .004915                    
P 11  -9268.405994 -14631.266301 -20290.626799     19.094190                    
V 11  24955.327318  -6558.563239  -6406.843512       .007756                    
P 12  11106.423734  23595.100797  -5104.493164    -47.648809                    
V 12  -5844.255481  -4075.933566 -30851.834484      -.009756                    
P 13 -11113.300560  -9516.878872  22061.295442    184.356832                    
V 13  13878.625834 -24525.123070  -3536.353225       .032584                    
P 14  17913.992798 -10279.104317 -16568.524529     26.599124                    
V 14  -8821.916128  19290.789655 -21481.758948       .019141                    
P 16   8945.107608 -13400.868451  21170.825218    158.000900                    
V 16  14840.442281  22221.395101   7978.696731       .027502                    
P 17 -18069.092763   7777.891837 -17764.308736     63.481711                    
V 17   8895.616058 -20900.574332 -18309.390933      -.012776                    
P 18  18791.247450  13953.152138 -12732.843993   -246.407224                    
V 18   6342.178648  15170.387634  25355.425308       .011282                    
P 19   5560.111779 -23682.383392 -10415.389589     45.485453                    
V 19   9179.990549 -10156.537334  27841.593036       .031235                    
P 20 -12457.580791 -23225.350503  -3552.377225    -26.014963                    
V 20   4933.341978   1975.069328 -31117.376553      -.004270                    
P 21  24447.214869   6289.917150   9281.178779     78.200299                    
V 21 -11406.654922   2900.587467  27891.371859       .002975                    
P 22  17317.745006   1413.488240 -19945.423122    188.018196                    
V 22  11906.383355  22795.215854  11824.968956       .015376                    
P 23  -4484.330358 -18621.930890  18222.590025    176.427324                    
V 23  11998.560415 -20106.310496 -17717.676293       .030512                    
P 24  14368.887391  12919.181718  18299.567061     10.070314                    
V 24 -22944.303946   1722.837076  17274.271686       .029734                    
P 25 -19045.124322  -8884.220361  16517.559150    334.115262                    
V 25  19865.864723  -4803.924580  20936.222164       .200335                    
P 26  -7219.479017  24020.446037  -8242.625098   -269.265328                    
V 26  -6634.810865   7725.449606  30487.989195      -.216986                    
P 27 -24113.011400  -4898.628173  10937.322090    118.679617                    
V 27  12540.680171  -3448.753070  27531.156960       .023481                    
P 28 -18364.416260  -5708.181965 -18128.206374     -1.658203                    
V 28 -11156.512171 -20828.796250  17196.932097      -.006316                    
P 29 -10239.511047  24095.643217  -2803.482953      4.017272                    
V 29  -3744.316961   2398.057108  32356.783643       .003003                    
P 30  17648.795328  19312.133148   4610.075594     37.580331                    
V 30   1015.051889   6909.000913 -30633.417819       .011133                    
P 31  23042.935274  -8521.292108  10384.083559     17.265941                    
V 31  12979.998895   1590.845176 -27954.905437      -.008453                    
EOF
